start=new Date('2022-11-17T00:00:00.000Z').valueOf();
sats=[{"ELEMENT_SET_NO":"999","ARG_OF_PERICENTER":"77.4862","EPHEMERIS_TYPE":"0","SEMIMAJOR_AXIS":"6925.369","APOAPSIS":"548.238","REV_AT_EPOCH":"12709","EPOCH":"2022-11-16T18:43:50.653632","RA_OF_ASC_NODE":"123.6247","SITE":"AFETR","CENTER_NAME":"EARTH","MEAN_MOTION_DOT":"-0.00000188","PERIAPSIS":"546.229","MEAN_MOTION":"15.06393476","REF_FRAME":"TEME","MEAN_MOTION_DDOT":"0.0000000000000","TLE_LINE1":"1 46075U 20055BA  22320.78044738 -.00000188  00000-0  62956-5 0  9995","MEAN_ELEMENT_THEORY":"SGP4","RCS_SIZE":"LARGE","COUNTRY_CODE":"US","NORAD_CAT_ID":"46075","OBJECT_ID":"2020-055BA","GP_ID":"218012843","INCLINATION":"53.0560","TLE_LINE2":"2 46075  53.0560 123.6247 0001451  77.4862 282.6289 15.06393476127093","LAUNCH_DATE":"2020-08-07","ECCENTRICITY":"0.00014510","FILE":"3660705","BSTAR":"0.00000629560000","MEAN_ANOMALY":"282.6289","OBJECT_NAME":"STARLINK-1551","PERIOD":"95.593","OBJECT_TYPE":"PAYLOAD","DECAY_DATE":null,"TIME_SYSTEM":"UTC","CLASSIFICATION_TYPE":"U"},{"MEAN_ELEMENT_THEORY":"SGP4","RCS_SIZE":"LARGE","COUNTRY_CODE":"US","OBJECT_ID":"2020-055BB","NORAD_CAT_ID":"46076","PERIAPSIS":"546.180","MEAN_MOTION":"15.06402398","MEAN_MOTION_DDOT":"0.0000000000000","TLE_LINE1":"1 46076U 20055BB  22320.73989298  .00001188  00000-0  98631-4 0  9998","REF_FRAME":"TEME","EPOCH":"2022-11-16T17:45:26.753472","RA_OF_ASC_NODE":"123.8121","MEAN_MOTION_DOT":"0.00001188","SITE":"AFETR","CENTER_NAME":"EARTH","EPHEMERIS_TYPE":"0","ELEMENT_SET_NO":"999","ARG_OF_PERICENTER":"75.2402","SEMIMAJOR_AXIS":"6925.341","REV_AT_EPOCH":"12707","APOAPSIS":"548.233","CLASSIFICATION_TYPE":"U","TIME_SYSTEM":"UTC","OBJECT_TYPE":"PAYLOAD","PERIOD":"95.592","DECAY_DATE":null,"FILE":"3660705","BSTAR":"0.00009863100000","OBJECT_NAME":"STARLINK-1552","MEAN_ANOMALY":"284.8751","GP_ID":"218013089","INCLINATION":"53.0534","TLE_LINE2":"2 46076  53.0534 123.8121 0001482  75.2402 284.8751 15.06402398127078","LAUNCH_DATE":"2020-08-07","ECCENTRICITY":"0.00014820"},{"EPOCH":"2022-11-16T17:18:55.299168","MEAN_MOTION_DOT":"0.00002163","CENTER_NAME":"EARTH","SITE":"AFETR","RA_OF_ASC_NODE":"123.8958","SEMIMAJOR_AXIS":"6925.353","EPHEMERIS_TYPE":"0","ELEMENT_SET_NO":"999","ARG_OF_PERICENTER":"89.5819","REV_AT_EPOCH":"12704","APOAPSIS":"548.276","RCS_SIZE":"LARGE","MEAN_ELEMENT_THEORY":"SGP4","COUNTRY_CODE":"US","NORAD_CAT_ID":"46077","OBJECT_ID":"2020-055BC","PERIAPSIS":"546.160","TLE_LINE1":"1 46077U 20055BC  22320.72147337  .00002163  00000-0  16409-3 0  9994","MEAN_MOTION_DDOT":"0.0000000000000","REF_FRAME":"TEME","MEAN_MOTION":"15.06398555","BSTAR":"0.00016409000000","FILE":"3660705","OBJECT_NAME":"STARLINK-1559","MEAN_ANOMALY":"270.5345","INCLINATION":"53.0545","TLE_LINE2":"2 46077  53.0545 123.8958 0001528  89.5819 270.5345 15.06398555127047","LAUNCH_DATE":"2020-08-07","GP_ID":"218012344","ECCENTRICITY":"0.00015280","CLASSIFICATION_TYPE":"U","TIME_SYSTEM":"UTC","OBJECT_TYPE":"PAYLOAD","PERIOD":"95.592","DECAY_DATE":null},{"FILE":"3660705","BSTAR":"0.00015226000000","MEAN_ANOMALY":"304.0700","OBJECT_NAME":"STARLINK-1563","GP_ID":"218012592","INCLINATION":"53.0540","TLE_LINE2":"2 46078  53.0540 123.6892 0001752  56.0455 304.0700 15.06392958127063","LAUNCH_DATE":"2020-08-07","ECCENTRICITY":"0.00017520","TIME_SYSTEM":"UTC","CLASSIFICATION_TYPE":"U","PERIOD":"95.593","OBJECT_TYPE":"PAYLOAD","DECAY_DATE":null,"EPOCH":"2022-11-16T18:22:36.499872","RA_OF_ASC_NODE":"123.6892","SITE":"AFETR","CENTER_NAME":"EARTH","MEAN_MOTION_DOT":"0.00001987","ARG_OF_PERICENTER":"56.0455","ELEMENT_SET_NO":"999","EPHEMERIS_TYPE":"0","SEMIMAJOR_AXIS":"6925.370","APOAPSIS":"548.448","REV_AT_EPOCH":"12706","MEAN_ELEMENT_THEORY":"SGP4","RCS_SIZE":"LARGE","COUNTRY_CODE":"US","NORAD_CAT_ID":"46078","OBJECT_ID":"2020-055BD","PERIAPSIS":"546.022","MEAN_MOTION":"15.06392958","REF_FRAME":"TEME","MEAN_MOTION_DDOT":"0.0000000000000","TLE_LINE1":"1 46078U 20055BD  22320.76570023  .00001987  00000-0  15226-3 0  9990"},{"TIME_SYSTEM":"UTC","CLASSIFICATION_TYPE":"U","DECAY_DATE":null,"PERIOD":"95.592","OBJECT_TYPE":"PAYLOAD","MEAN_ANOMALY":"279.8208","OBJECT_NAME":"STARLINK-1566","BSTAR":"0.00012244000000","FILE":"3660705","ECCENTRICITY":"0.00015260","TLE_LINE2":"2 46079  53.0551 123.7261 0001526  80.2953 279.8208 15.06399258127093","LAUNCH_DATE":"2020-08-07","INCLINATION":"53.0551","GP_ID":"218013344","COUNTRY_CODE":"US","NORAD_CAT_ID":"46079","OBJECT_ID":"2020-055BE","RCS_SIZE":"LARGE","MEAN_ELEMENT_THEORY":"SGP4","REF_FRAME":"TEME","MEAN_MOTION_DDOT":"0.0000000000000","TLE_LINE1":"1 46079U 20055BE  22320.75832529  .00001543  00000-0  12244-3 0  9997","MEAN_MOTION":"15.06399258","PERIAPSIS":"546.159","SITE":"AFETR","CENTER_NAME":"EARTH","MEAN_MOTION_DOT":"0.00001543","RA_OF_ASC_NODE":"123.7261","EPOCH":"2022-11-16T18:11:59.305056","APOAPSIS":"548.273","REV_AT_EPOCH":"12709","SEMIMAJOR_AXIS":"6925.351","ARG_OF_PERICENTER":"80.2953","ELEMENT_SET_NO":"999","EPHEMERIS_TYPE":"0"},{"RA_OF_ASC_NODE":"123.6054","SITE":"AFETR","CENTER_NAME":"EARTH","MEAN_MOTION_DOT":"-0.00000289","EPOCH":"2022-11-16T18:47:47.473440","APOAPSIS":"548.319","REV_AT_EPOCH":"12656","ARG_OF_PERICENTER":"82.9358","ELEMENT_SET_NO":"999","EPHEMERIS_TYPE":"0","SEMIMAJOR_AXIS":"6925.361","COUNTRY_CODE":"US","NORAD_CAT_ID":"46080","OBJECT_ID":"2020-055BF","MEAN_ELEMENT_THEORY":"SGP4","RCS_SIZE":"LARGE","MEAN_MOTION":"15.06396050","REF_FRAME":"TEME","TLE_LINE1":"1 46080U 20055BF  22320.78318835 -.00000289  00000-0 -50852-6 0  9999","MEAN_MOTION_DDOT":"0.0000000000000","PERIAPSIS":"546.132","MEAN_ANOMALY":"277.1810","OBJECT_NAME":"STARLINK-1568","FILE":"3660132","BSTAR":"-0.00000050852000","ECCENTRICITY":"0.00015790","GP_ID":"217980255","TLE_LINE2":"2 46080  53.0549 123.6054 0001579  82.9358 277.1810 15.06396050126565","INCLINATION":"53.0549","LAUNCH_DATE":"2020-08-07","TIME_SYSTEM":"UTC","CLASSIFICATION_TYPE":"U","DECAY_DATE":null,"PERIOD":"95.592","OBJECT_TYPE":"PAYLOAD"},{"OBJECT_NAME":"STARLINK-1571","MEAN_ANOMALY":"316.2244","BSTAR":"-0.00007472300000","FILE":"3660705","ECCENTRICITY":"0.00020280","TLE_LINE2":"2 46081  53.0545 123.7464 0002028  43.8905 316.2244 15.06393722127089","LAUNCH_DATE":"2020-08-07","INCLINATION":"53.0545","GP_ID":"218011845","CLASSIFICATION_TYPE":"U","TIME_SYSTEM":"UTC","DECAY_DATE":null,"OBJECT_TYPE":"PAYLOAD","PERIOD":"95.593","MEAN_MOTION_DOT":"-0.00001394","SITE":"AFETR","CENTER_NAME":"EARTH","RA_OF_ASC_NODE":"123.7464","EPOCH":"2022-11-16T18:01:23.255040","REV_AT_EPOCH":"12708","APOAPSIS":"548.637","SEMIMAJOR_AXIS":"6925.368","EPHEMERIS_TYPE":"0","ARG_OF_PERICENTER":"43.8905","ELEMENT_SET_NO":"999","COUNTRY_CODE":"US","NORAD_CAT_ID":"46081","OBJECT_ID":"2020-055BG","RCS_SIZE":"LARGE","MEAN_ELEMENT_THEORY":"SGP4","TLE_LINE1":"1 46081U 20055BG  22320.75096360 -.00001394  00000-0 -74723-4 0  9992","MEAN_MOTION_DDOT":"0.0000000000000","REF_FRAME":"TEME","MEAN_MOTION":"15.06393722","PERIAPSIS":"545.828"},{"COUNTRY_CODE":"US","NORAD_CAT_ID":"46082","OBJECT_ID":"2020-055BH","MEAN_ELEMENT_THEORY":"SGP4","RCS_SIZE":"LARGE","MEAN_MOTION":"15.06402274","REF_FRAME":"TEME","MEAN_MOTION_DDOT":"0.0000000000000","TLE_LINE1":"1 46082U 20055BH  22320.77308002 -.00002078  00000-0 -12066-3 0  9995","PERIAPSIS":"546.229","RA_OF_ASC_NODE":"123.6641","CENTER_NAME":"EARTH","SITE":"AFETR","MEAN_MOTION_DOT":"-0.00002078","EPOCH":"2022-11-16T18:33:14.113728","APOAPSIS":"548.184","REV_AT_EPOCH":"12656","ELEMENT_SET_NO":"999","ARG_OF_PERICENTER":"99.6523","EPHEMERIS_TYPE":"0","SEMIMAJOR_AXIS":"6925.342","TIME_SYSTEM":"UTC","CLASSIFICATION_TYPE":"U","DECAY_DATE":null,"PERIOD":"95.592","OBJECT_TYPE":"PAYLOAD","MEAN_ANOMALY":"260.4626","OBJECT_NAME":"STARLINK-1578","FILE":"3660133","BSTAR":"-0.00012066000000","ECCENTRICITY":"0.00014110","GP_ID":"217980286","TLE_LINE2":"2 46082  53.0545 123.6641 0001411  99.6523 260.4626 15.06402274126565","INCLINATION":"53.0545","LAUNCH_DATE":"2020-08-07"},{"PERIAPSIS":"546.271","MEAN_MOTION_DDOT":"0.0000000000000","TLE_LINE1":"1 46083U 20055BJ  22320.74358673  .00000511  00000-0  53175-4 0  9997","REF_FRAME":"TEME","MEAN_MOTION":"15.06394691","RCS_SIZE":"LARGE","MEAN_ELEMENT_THEORY":"SGP4","COUNTRY_CODE":"US","NORAD_CAT_ID":"46083","OBJECT_ID":"2020-055BJ","SEMIMAJOR_AXIS":"6925.365","EPHEMERIS_TYPE":"0","ARG_OF_PERICENTER":"92.0700","ELEMENT_SET_NO":"999","REV_AT_EPOCH":"12708","APOAPSIS":"548.188","EPOCH":"2022-11-16T17:50:45.893472","MEAN_MOTION_DOT":"0.00000511","CENTER_NAME":"EARTH","SITE":"AFETR","RA_OF_ASC_NODE":"123.7965","OBJECT_TYPE":"PAYLOAD","PERIOD":"95.592","DECAY_DATE":null,"CLASSIFICATION_TYPE":"U","TIME_SYSTEM":"UTC","INCLINATION":"53.0546","TLE_LINE2":"2 46083  53.0546 123.7965 0001384  92.0700 268.0448 15.06394691127087","LAUNCH_DATE":"2020-08-07","GP_ID":"218012844","ECCENTRICITY":"0.00013840","BSTAR":"0.00005317500000","FILE":"3660705","OBJECT_NAME":"STARLINK-1579","MEAN_ANOMALY":"268.0448"},{"MEAN_MOTION_DOT":"0.00004651","SITE":"AFETR","CENTER_NAME":"EARTH","RA_OF_ASC_NODE":"323.9422","EPOCH":"2022-11-16T17:03:00.263808","REV_AT_EPOCH":"12478","APOAPSIS":"548.331","SEMIMAJOR_AXIS":"6925.429","EPHEMERIS_TYPE":"0","ARG_OF_PERICENTER":"57.2015","ELEMENT_SET_NO":"999","NORAD_CAT_ID":"46117","COUNTRY_CODE":"US","OBJECT_ID":"2020-057A","RCS_SIZE":"LARGE","MEAN_ELEMENT_THEORY":"SGP4","TLE_LINE1":"1 46117U 20057A   22320.71041972  .00004651  00000-0  33118-3 0  9998","MEAN_MOTION_DDOT":"0.0000000000000","REF_FRAME":"TEME","MEAN_MOTION":"15.06373755","PERIAPSIS":"546.257","OBJECT_NAME":"STARLINK-1585","MEAN_ANOMALY":"302.9118","BSTAR":"0.00033118000000","FILE":"3660077","ECCENTRICITY":"0.00014980","LAUNCH_DATE":"2020-08-18","TLE_LINE2":"2 46117  53.0576 323.9422 0001498  57.2015 302.9118 15.06373755124782","INCLINATION":"53.0576","GP_ID":"217977923","CLASSIFICATION_TYPE":"U","TIME_SYSTEM":"UTC","DECAY_DATE":null,"OBJECT_TYPE":"PAYLOAD","PERIOD":"95.594"}];
